start=new Date('2022-07-02T00:00:00.000Z').valueOf();
sats=[{"REV_AT_EPOCH":"6512","BSTAR":"0.00000994890000","NORAD_CAT_ID":"48312","PERIOD":"95.593","EPHEMERIS_TYPE":"0","CLASSIFICATION_TYPE":"U","OBJECT_NAME":"STARLINK-2061","SITE":"AFETR","RCS_SIZE":"LARGE","ARG_OF_PERICENTER":"74.0494","COUNTRY_CODE":"US","TLE_LINE2":"2 48312  53.0566  19.3416 0001650  74.0494 286.0676 15.06393061 65122","PERIAPSIS":"546.092","LAUNCH_DATE":"2021-04-29","INCLINATION":"53.0566","RA_OF_ASC_NODE":"19.3416","MEAN_MOTION_DDOT":"0.0000000000000","MEAN_MOTION_DOT":"-0.00000133","GP_ID":"207209430","APOAPSIS":"548.378","REF_FRAME":"TEME","DECAY_DATE":null,"CENTER_NAME":"EARTH","MEAN_MOTION":"15.06393061","FILE":"3506285","TIME_SYSTEM":"UTC","TLE_LINE1":"1 48312U 21036AN  22182.51211419 -.00000133  00000-0  99489-5 0  9991","MEAN_ELEMENT_THEORY":"SGP4","MEAN_ANOMALY":"286.0676","ELEMENT_SET_NO":"999","EPOCH":"2022-07-01T12:17:26.666016","ECCENTRICITY":"0.00016500","SEMIMAJOR_AXIS":"6925.370","OBJECT_ID":"2021-036AN","OBJECT_TYPE":"PAYLOAD"},{"OBJECT_TYPE":"PAYLOAD","MEAN_ANOMALY":"281.4989","ELEMENT_SET_NO":"999","EPOCH":"2022-07-01T20:09:50.052096","ECCENTRICITY":"0.00013700","SEMIMAJOR_AXIS":"6925.384","OBJECT_ID":"2021-036AP","TIME_SYSTEM":"UTC","TLE_LINE1":"1 48313U 21036AP  22182.84016264  .00000004  00000-0  19195-4 0  9990","MEAN_ELEMENT_THEORY":"SGP4","MEAN_MOTION":"15.06388307","FILE":"3506330","MEAN_MOTION_DOT":"0.00000004","GP_ID":"207213442","APOAPSIS":"548.198","REF_FRAME":"TEME","DECAY_DATE":null,"CENTER_NAME":"EARTH","TLE_LINE2":"2 48313  53.0569  17.8522 0001370  78.6154 281.4989 15.06388307 65818","COUNTRY_CODE":"US","PERIAPSIS":"546.301","LAUNCH_DATE":"2021-04-29","INCLINATION":"53.0569","MEAN_MOTION_DDOT":"0.0000000000000","RA_OF_ASC_NODE":"17.8522","ARG_OF_PERICENTER":"78.6154","REV_AT_EPOCH":"6581","BSTAR":"0.00001919500000","NORAD_CAT_ID":"48313","PERIOD":"95.593","EPHEMERIS_TYPE":"0","CLASSIFICATION_TYPE":"U","SITE":"AFETR","OBJECT_NAME":"STARLINK-2541","RCS_SIZE":"LARGE"},{"FILE":"3506378","MEAN_MOTION":"15.06401964","MEAN_ELEMENT_THEORY":"SGP4","TIME_SYSTEM":"UTC","TLE_LINE1":"1 48314U 21036AQ  22182.83646423 -.00000085  00000-0  13190-4 0  9995","EPOCH":"2022-07-01T20:04:30.509472","SEMIMAJOR_AXIS":"6925.343","ECCENTRICITY":"0.00013180","OBJECT_ID":"2021-036AQ","MEAN_ANOMALY":"280.9293","ELEMENT_SET_NO":"999","OBJECT_TYPE":"PAYLOAD","CLASSIFICATION_TYPE":"U","SITE":"AFETR","OBJECT_NAME":"STARLINK-2549","RCS_SIZE":"LARGE","REV_AT_EPOCH":"6581","BSTAR":"0.00001319000000","NORAD_CAT_ID":"48314","PERIOD":"95.592","EPHEMERIS_TYPE":"0","ARG_OF_PERICENTER":"79.1844","INCLINATION":"53.0564","RA_OF_ASC_NODE":"17.8881","MEAN_MOTION_DDOT":"0.0000000000000","TLE_LINE2":"2 48314  53.0564  17.8881 0001318  79.1844 280.9293 15.06401964 65813","COUNTRY_CODE":"US","PERIAPSIS":"546.295","LAUNCH_DATE":"2021-04-29","GP_ID":"207214774","REF_FRAME":"TEME","APOAPSIS":"548.120","DECAY_DATE":null,"CENTER_NAME":"EARTH","MEAN_MOTION_DOT":"-0.00000085"},{"MEAN_MOTION_DDOT":"0.0000000000000","RA_OF_ASC_NODE":"19.0774","INCLINATION":"53.0556","COUNTRY_CODE":"US","TLE_LINE2":"2 48315  53.0556  19.0774 0001681  81.3109 278.8070 15.06405126 65129","LAUNCH_DATE":"2021-04-29","PERIAPSIS":"546.034","GP_ID":"207209679","DECAY_DATE":null,"CENTER_NAME":"EARTH","APOAPSIS":"548.362","REF_FRAME":"TEME","MEAN_MOTION_DOT":"0.00001605","SITE":"AFETR","RCS_SIZE":"LARGE","OBJECT_NAME":"STARLINK-2506","CLASSIFICATION_TYPE":"U","BSTAR":"0.00012660000000","REV_AT_EPOCH":"6512","EPHEMERIS_TYPE":"0","NORAD_CAT_ID":"48315","PERIOD":"95.592","ARG_OF_PERICENTER":"81.3109","EPOCH":"2022-07-01T13:35:41.572896","OBJECT_ID":"2021-036AR","ECCENTRICITY":"0.00016810","SEMIMAJOR_AXIS":"6925.333","ELEMENT_SET_NO":"999","MEAN_ANOMALY":"278.8070","OBJECT_TYPE":"PAYLOAD","FILE":"3506285","MEAN_MOTION":"15.06405126","MEAN_ELEMENT_THEORY":"SGP4","TIME_SYSTEM":"UTC","TLE_LINE1":"1 48315U 21036AR  22182.56645339  .00001605  00000-0  12660-3 0  9999"},{"OBJECT_NAME":"STARLINK-2507","SITE":"AFETR","RCS_SIZE":"LARGE","CLASSIFICATION_TYPE":"U","EPHEMERIS_TYPE":"0","PERIOD":"95.592","NORAD_CAT_ID":"48316","REV_AT_EPOCH":"6581","BSTAR":"0.00000116710000","ARG_OF_PERICENTER":"69.9564","MEAN_MOTION_DDOT":"0.0000000000000","RA_OF_ASC_NODE":"17.9107","INCLINATION":"53.0554","LAUNCH_DATE":"2021-04-29","PERIAPSIS":"546.308","COUNTRY_CODE":"US","TLE_LINE2":"2 48316  53.0554  17.9107 0001319  69.9564 290.1566 15.06397534 65816","DECAY_DATE":null,"CENTER_NAME":"EARTH","APOAPSIS":"548.135","REF_FRAME":"TEME","GP_ID":"207213468","MEAN_MOTION_DOT":"-0.00000264","FILE":"3506331","MEAN_MOTION":"15.06397534","MEAN_ELEMENT_THEORY":"SGP4","TLE_LINE1":"1 48316U 21036AS  22182.82909783 -.00000264  00000-0  11671-5 0  9999","TIME_SYSTEM":"UTC","OBJECT_ID":"2021-036AS","ECCENTRICITY":"0.00013190","SEMIMAJOR_AXIS":"6925.356","EPOCH":"2022-07-01T19:53:54.052512","ELEMENT_SET_NO":"999","MEAN_ANOMALY":"290.1566","OBJECT_TYPE":"PAYLOAD"},{"MEAN_ELEMENT_THEORY":"SGP4","TLE_LINE1":"1 48317U 21036AT  22182.56002774 -.00000151  00000-0  87313-5 0  9996","TIME_SYSTEM":"UTC","FILE":"3506285","MEAN_MOTION":"15.06394711","OBJECT_TYPE":"PAYLOAD","SEMIMAJOR_AXIS":"6925.365","ECCENTRICITY":"0.00016140","OBJECT_ID":"2021-036AT","EPOCH":"2022-07-01T13:26:26.396736","MEAN_ANOMALY":"282.5241","ELEMENT_SET_NO":"999","ARG_OF_PERICENTER":"77.5928","CLASSIFICATION_TYPE":"U","OBJECT_NAME":"STARLINK-2513","SITE":"AFETR","RCS_SIZE":"LARGE","NORAD_CAT_ID":"48317","PERIOD":"95.592","EPHEMERIS_TYPE":"0","BSTAR":"0.00000873130000","REV_AT_EPOCH":"6512","REF_FRAME":"TEME","APOAPSIS":"548.348","CENTER_NAME":"EARTH","DECAY_DATE":null,"GP_ID":"207208679","MEAN_MOTION_DOT":"-0.00000151","INCLINATION":"53.0549","RA_OF_ASC_NODE":"19.1224","MEAN_MOTION_DDOT":"0.0000000000000","PERIAPSIS":"546.112","LAUNCH_DATE":"2021-04-29","COUNTRY_CODE":"US","TLE_LINE2":"2 48317  53.0549  19.1224 0001614  77.5928 282.5241 15.06394711 65125"},{"COUNTRY_CODE":"US","TLE_LINE2":"2 48318  53.0554  30.0617 0001549  71.3476 288.7681 15.06396234 64955","PERIAPSIS":"546.152","LAUNCH_DATE":"2021-04-29","INCLINATION":"53.0554","MEAN_MOTION_DDOT":"0.0000000000000","RA_OF_ASC_NODE":"30.0617","MEAN_MOTION_DOT":"0.00002974","GP_ID":"207208929","REF_FRAME":"TEME","APOAPSIS":"548.298","DECAY_DATE":null,"CENTER_NAME":"EARTH","REV_AT_EPOCH":"6495","BSTAR":"0.00021850000000","NORAD_CAT_ID":"48318","PERIOD":"95.592","EPHEMERIS_TYPE":"0","CLASSIFICATION_TYPE":"U","RCS_SIZE":"LARGE","SITE":"AFETR","OBJECT_NAME":"STARLINK-2509","ARG_OF_PERICENTER":"71.3476","MEAN_ANOMALY":"288.7681","ELEMENT_SET_NO":"999","EPOCH":"2022-07-01T08:27:53.046720","SEMIMAJOR_AXIS":"6925.360","ECCENTRICITY":"0.00015490","OBJECT_ID":"2021-036AU","OBJECT_TYPE":"PAYLOAD","MEAN_MOTION":"15.06396234","FILE":"3506285","TIME_SYSTEM":"UTC","TLE_LINE1":"1 48318U 21036AU  22182.35269730  .00002974  00000-0  21850-3 0  9997","MEAN_ELEMENT_THEORY":"SGP4"},{"FILE":"3506285","MEAN_MOTION":"15.06390127","MEAN_ELEMENT_THEORY":"SGP4","TIME_SYSTEM":"UTC","TLE_LINE1":"1 48319U 21036AV  22182.34806527  .00000015  00000-0  19932-4 0  9991","EPOCH":"2022-07-01T08:21:12.839328","OBJECT_ID":"2021-036AV","SEMIMAJOR_AXIS":"6925.379","ECCENTRICITY":"0.00014760","ELEMENT_SET_NO":"999","MEAN_ANOMALY":"289.9852","OBJECT_TYPE":"PAYLOAD","SITE":"AFETR","OBJECT_NAME":"STARLINK-2512","RCS_SIZE":"LARGE","CLASSIFICATION_TYPE":"U","BSTAR":"0.00001993200000","REV_AT_EPOCH":"6495","EPHEMERIS_TYPE":"0","NORAD_CAT_ID":"48319","PERIOD":"95.593","ARG_OF_PERICENTER":"70.1296","MEAN_MOTION_DDOT":"0.0000000000000","RA_OF_ASC_NODE":"30.0680","INCLINATION":"53.0574","COUNTRY_CODE":"US","TLE_LINE2":"2 48319  53.0574  30.0680 0001476  70.1296 289.9852 15.06390127 64952","LAUNCH_DATE":"2021-04-29","PERIAPSIS":"546.222","GP_ID":"207209180","DECAY_DATE":null,"CENTER_NAME":"EARTH","REF_FRAME":"TEME","APOAPSIS":"548.266","MEAN_MOTION_DOT":"0.00000015"},{"ARG_OF_PERICENTER":"70.1063","OBJECT_NAME":"STARLINK-2029","SITE":"AFETR","RCS_SIZE":"LARGE","CLASSIFICATION_TYPE":"U","EPHEMERIS_TYPE":"0","NORAD_CAT_ID":"48320","PERIOD":"95.593","BSTAR":"-0.00006588300000","REV_AT_EPOCH":"6498","CENTER_NAME":"EARTH","DECAY_DATE":null,"APOAPSIS":"548.273","REF_FRAME":"TEME","GP_ID":"207209431","MEAN_MOTION_DOT":"-0.00001262","RA_OF_ASC_NODE":"29.1989","MEAN_MOTION_DDOT":"0.0000000000000","INCLINATION":"53.0557","LAUNCH_DATE":"2021-04-29","PERIAPSIS":"546.240","COUNTRY_CODE":"US","TLE_LINE2":"2 48320  53.0557  29.1989 0001468  70.1063 290.0084 15.06385925 64982","MEAN_ELEMENT_THEORY":"SGP4","TLE_LINE1":"1 48320U 21036AW  22182.54436258 -.00001262  00000-0 -65883-4 0  9998","TIME_SYSTEM":"UTC","FILE":"3506285","MEAN_MOTION":"15.06385925","OBJECT_TYPE":"PAYLOAD","OBJECT_ID":"2021-036AW","SEMIMAJOR_AXIS":"6925.392","ECCENTRICITY":"0.00014680","EPOCH":"2022-07-01T13:03:52.926912","ELEMENT_SET_NO":"999","MEAN_ANOMALY":"290.0084"},{"PERIOD":"95.593","NORAD_CAT_ID":"48321","EPHEMERIS_TYPE":"0","REV_AT_EPOCH":"6498","BSTAR":"0.00002578800000","CLASSIFICATION_TYPE":"U","SITE":"AFETR","OBJECT_NAME":"STARLINK-2457","RCS_SIZE":"LARGE","ARG_OF_PERICENTER":"71.6021","PERIAPSIS":"546.066","LAUNCH_DATE":"2021-04-29","TLE_LINE2":"2 48321  53.0571  29.2074 0001682  71.6021 288.5150 15.06394205 64980","COUNTRY_CODE":"US","INCLINATION":"53.0571","RA_OF_ASC_NODE":"29.2074","MEAN_MOTION_DDOT":"0.0000000000000","MEAN_MOTION_DOT":"0.00000103","APOAPSIS":"548.396","REF_FRAME":"TEME","DECAY_DATE":null,"CENTER_NAME":"EARTH","GP_ID":"207208179","MEAN_MOTION":"15.06394205","FILE":"3506285","TLE_LINE1":"1 48321U 21036AX  22182.54067704  .00000103  00000-0  25788-4 0  9996","TIME_SYSTEM":"UTC","MEAN_ELEMENT_THEORY":"SGP4","MEAN_ANOMALY":"288.5150","ELEMENT_SET_NO":"999","SEMIMAJOR_AXIS":"6925.366","ECCENTRICITY":"0.00016820","OBJECT_ID":"2021-036AX","EPOCH":"2022-07-01T12:58:34.496256","OBJECT_TYPE":"PAYLOAD"}];
